[{"OBJECT_NAME":"STARLINK-30227","OBJECT_ID":"2023-113L","EPOCH":"2026-03-09T05:24:25.568352","MEAN_MOTION":15.18160462,"ECCENTRICITY":0.00027892,"INCLINATION":43.0053,"RA_OF_ASC_NODE":4.8681,"ARG_OF_PERICENTER":225.8359,"MEAN_ANOMALY":134.226,"EPHEMERIS_TYPE":0,"CLASSIFICATION_TYPE":"U","NORAD_CAT_ID":57505,"ELEMENT_SET_NO":999,"REV_AT_EPOCH":14376,"BSTAR":0.0015710865,"MEAN_MOTION_DOT":0.00032605,"MEAN_MOTION_DDOT":0},{"OBJECT_NAME":"MBZ-SAT","OBJECT_ID":"2025-009T","EPOCH":"2026-03-09T17:04:51.088224","MEAN_MOTION":15.18507845,"ECCENTRICITY":0.00021634,"INCLINATION":97.403,"RA_OF_ASC_NODE":149.1701,"ARG_OF_PERICENTER":323.4829,"MEAN_ANOMALY":36.6257,"EPHEMERIS_TYPE":0,"CLASSIFICATION_TYPE":"U","NORAD_CAT_ID":62626,"ELEMENT_SET_NO":999,"REV_AT_EPOCH":6359,"BSTAR":3.31466e-7,"MEAN_MOTION_DOT":-5.9e-7,"MEAN_MOTION_DDOT":0}]
